NORAD_CAT_ID,OBJECT_NAME,OBJECT_TYPE,EPOCH,MEAN_MOTION,ECCENTRICITY,INCLINATION,RA_OF_ASC_NODE,ARG_OF_PERICENTER,MEAN_ANOMALY,BSTAR,MEAN_MOTION_DOT,MEAN_MOTION_DDOT,TLE_LINE0,TLE_LINE1,TLE_LINE2,SEMIMAJOR_AXIS,PERIOD,APOGEE,PERIGEE,DECAYED
53153.0,STARLINK-4098,PAYLOAD,2024-06-08 17:06:27,15.08829803,0.0001548,53.2164,152.5981,86.7171,273.3998,0.00011815,1.592e-05,0.0,0 STARLINK-4098,1 53153U 22083X   24160.71281500  .00001592  00000-0  11815-3 0  9995,2 53153  53.2164 152.5981 0001548  86.7171 273.3998 15.08829803104896,6917.912,95.438,540.847,538.706,0.0
53153.0,STARLINK-4098,PAYLOAD,2024-06-09 05:49:32,15.08835623,0.0001661,53.2168,150.2184,89.0,271.1183,7.3474e-05,8.81e-06,0.0,0 STARLINK-4098,1 53153U 22083X   24161.24273553  .00000881  00000-0  73474-4 0  9993,2 53153  53.2168 150.2184 0001661  89.0000 271.1183 15.08835623105602,6917.894,95.438,540.908,538.61,0.0
53153.0,STARLINK-4098,PAYLOAD,2024-06-09 23:18:46,15.0883546,0.0001662,53.2169,146.9475,90.7464,269.3719,6.8006e-05,7.94e-06,0.0,0 STARLINK-4098,1 53153U 22083X   24161.97137697  .00000794  00000-0  68006-4 0  9999,2 53153  53.2169 146.9475 0001662  90.7464 269.3719 15.08835460105087,6917.894,95.438,540.909,538.61,0.0
53153.0,STARLINK-4098,PAYLOAD,2024-06-10 05:40:19,15.08838497,0.0001641,53.2167,145.7585,89.8527,270.2653,8.9839e-05,1.142e-05,0.0,0 STARLINK-4098,1 53153U 22083X   24162.23633526  .00001142  00000-0  89839-4 0  9996,2 53153  53.2167 145.7585 0001641  89.8527 270.2653 15.08838497105126,6917.885,95.438,540.885,538.615,0.0
53153.0,STARLINK-4098,PAYLOAD,2024-06-10 23:09:34,15.08838309,0.000163,53.2168,142.4878,90.0039,270.114,6.4437e-05,7.38e-06,0.0,0 STARLINK-4098,1 53153U 22083X   24162.96497738  .00000738  00000-0  64437-4 0  9996,2 53153  53.2168 142.4878 0001630  90.0039 270.1140 15.08838309105230,6917.886,95.438,540.878,538.623,0.0
53153.0,STARLINK-4098,PAYLOAD,2024-06-11 05:31:06,15.08842877,0.0001615,53.2168,141.2985,89.9539,270.1638,9.9638e-05,1.298e-05,0.0,0 STARLINK-4098,1 53153U 22083X   24163.22993365  .00001298  00000-0  99638-4 0  9996,2 53153  53.2168 141.2985 0001615  89.9539 270.1638 15.08842877105902,6917.872,95.437,540.854,538.619,0.0
53153.0,STARLINK-4098,PAYLOAD,2024-06-12 05:21:54,15.08831309,0.0001637,53.217,136.8397,91.1746,268.9434,-2.012e-05,-6.08e-06,0.0,0 STARLINK-4098,1 53153U 22083X   24164.22354740 -.00000608  00000-0 -20120-4 0  9991,2 53153  53.2170 136.8397 0001637  91.1746 268.9434 15.08831309106055,6917.907,95.438,540.904,538.639,0.0
53153.0,STARLINK-4098,PAYLOAD,2024-06-12 14:54:13,15.08832701,0.0001642,53.2172,135.0555,90.8406,269.2775,-8.8245e-06,-4.28e-06,0.0,0 STARLINK-4098,1 53153U 22083X   24164.62098772 -.00000428  00000-0 -88245-5 0  9998,2 53153  53.2172 135.0555 0001642  90.8406 269.2775 15.08832701105484,6917.903,95.438,540.904,538.632,0.0
53153.0,STARLINK-4098,PAYLOAD,2024-06-13 05:12:41,15.08841583,0.00016,53.217,132.3798,94.2481,265.8694,4.0687e-05,3.6e-06,0.0,0 STARLINK-4098,1 53153U 22083X   24165.21714178  .00000360  00000-0  40687-4 0  9999,2 53153  53.2170 132.3798 0001600  94.2481 265.8694 15.08841583106207,6917.876,95.437,540.847,538.634,0.0
53153.0,STARLINK-4098,PAYLOAD,2024-06-13 06:48:04,15.08841947,0.0001611,53.2171,132.0827,94.8972,265.2204,4.3771e-05,4.09e-06,0.0,0 STARLINK-4098,1 53153U 22083X   24165.28338143  .00000409  00000-0  43771-4 0  9991,2 53153  53.2171 132.0827 0001611  94.8972 265.2204 15.08841947105586,6917.874,95.437,540.854,538.625,0.0
53153.0,STARLINK-4098,PAYLOAD,2024-06-13 14:45:00,15.08837512,0.000157,53.2174,130.5943,87.9104,272.2068,7.5335e-05,9.11e-06,0.0,0 STARLINK-4098,1 53153U 22083X   24165.61458336  .00000911  00000-0  75335-4 0  9994,2 53153  53.2174 130.5943 0001570  87.9104 272.2068 15.08837512105630,6917.888,95.438,540.839,538.667,0.0
53153.0,STARLINK-4098,PAYLOAD,2024-06-14 05:03:28,15.08835371,0.0001627,53.2175,127.9184,84.6253,275.4925,9.208e-05,1.178e-05,0.0,0 STARLINK-4098,1 53153U 22083X   24166.21074662  .00001178  00000-0  92080-4 0  9999,2 53153  53.2175 127.9184 0001627  84.6253 275.4925 15.08835371105728,6917.895,95.438,540.885,538.634,0.0
53153.0,STARLINK-4098,PAYLOAD,2024-06-14 20:57:19,15.08841077,0.0001771,53.2184,124.945,83.5361,276.5833,4.6036e-05,4.45e-06,0.0,0 STARLINK-4098,1 53153U 22083X   24166.87314598  .00000445  00000-0  46036-4 0  9992,2 53153  53.2184 124.9450 0001771  83.5361 276.5833 15.08841077105820,6917.877,95.437,540.967,538.517,0.0
53153.0,STARLINK-4098,PAYLOAD,2024-06-15 06:29:38,15.08848959,0.000171,53.2181,123.1603,83.0358,277.0829,7.138e-05,8.48e-06,0.0,0 STARLINK-4098,1 53153U 22083X   24167.27057913  .00000848  00000-0  71380-4 0  9999,2 53153  53.2181 123.1603 0001710  83.0358 277.0829 15.08848959105885,6917.853,95.437,540.901,538.535,0.0
53153.0,STARLINK-4098,PAYLOAD,2024-06-16 06:20:24,15.08846805,0.0001531,53.2171,118.6977,104.6282,255.488,5.0453e-05,5.15e-06,0.0,0 STARLINK-4098,1 53153U 22083X   24168.26417697  .00000515  00000-0  50453-4 0  9997,2 53153  53.2171 118.6977 0001531 104.6282 255.4880 15.08846805106037,6917.86,95.437,540.784,538.665,0.0
53153.0,STARLINK-4098,PAYLOAD,2024-06-17 03:00:26,15.08837171,0.0001444,53.2174,114.8321,96.3073,263.8084,-5.6785e-05,-1.191e-05,0.0,0 STARLINK-4098,1 53153U 22083X   24169.12530934 -.00001191  00000-0 -56785-4 0  9990,2 53153  53.2174 114.8321 0001444  96.3073 263.8084 15.08837171106168,6917.889,95.438,540.753,538.755,0.0
53153.0,STARLINK-4098,PAYLOAD,2024-06-18 02:51:12,15.08848466,0.0001381,53.2178,110.3726,90.4925,269.6225,3.9188e-05,3.36e-06,0.0,0 STARLINK-4098,1 53153U 22083X   24170.11889915  .00000336  00000-0  39188-4 0  9993,2 53153  53.2178 110.3726 0001381  90.4925 269.6225 15.08848466106949,6917.855,95.437,540.675,538.764,0.0
53153.0,STARLINK-4098,PAYLOAD,2024-06-18 06:01:58,15.08852674,0.0001329,53.2177,109.7776,88.0351,272.0793,2.8015e-05,1.58e-06,0.0,0 STARLINK-4098,1 53153U 22083X   24170.25137627  .00000158  00000-0  28015-4 0  9993,2 53153  53.2177 109.7776 0001329  88.0351 272.0793 15.08852674106330,6917.842,95.437,540.626,538.787,0.0
53153.0,STARLINK-4098,PAYLOAD,2024-06-19 02:42:00,15.08836238,5.21e-05,53.2175,105.9141,62.9893,297.1152,5.4385e-05,5.78e-06,0.0,0 STARLINK-4098,1 53153U 22083X   24171.11250468  .00000578  00000-0  54385-4 0  9993,2 53153  53.2175 105.9141 0000521  62.9893 297.1152 15.08836238107096,6917.892,95.438,540.117,539.396,0.0
53153.0,STARLINK-4098,PAYLOAD,2024-06-19 12:14:19,15.08837591,0.0001543,53.2177,104.1276,86.1385,273.9784,3.8966e-05,3.32e-06,0.0,0 STARLINK-4098,1 53153U 22083X   24171.50994438  .00000332  00000-0  38966-4 0  9993,2 53153  53.2177 104.1276 0001543  86.1385 273.9784 15.08837591106520,6917.888,95.438,540.82,538.685,0.0
53153.0,STARLINK-4098,PAYLOAD,2024-06-20 00:57:25,15.08832841,0.0001486,53.219,101.7529,104.81,255.3057,-0.00018954,-3.303e-05,0.0,0 STARLINK-4098,1 53153U 22083X   24172.03987682 -.00003303  00000-0 -18954-3 0  9992,2 53153  53.2190 101.7529 0001486 104.8100 255.3057 15.08832841107237,6917.902,95.438,540.795,538.739,0.0
53153.0,STARLINK-4098,PAYLOAD,2024-06-20 12:05:07,15.08835364,0.0001341,53.2184,99.6679,83.4091,276.7054,-5.5543e-05,-1.172e-05,0.0,0 STARLINK-4098,1 53153U 22083X   24172.50355349 -.00001172  00000-0 -55543-4 0  9991,2 53153  53.2184  99.6679 0001341  83.4091 276.7054 15.08835364106676,6917.895,95.438,540.687,538.832,0.0
53153.0,STARLINK-4098,PAYLOAD,2024-06-20 23:12:48,15.08847098,0.0001294,53.2185,97.5879,94.5705,265.5435,-5.254e-05,-1.124e-05,0.0,0 STARLINK-4098,1 53153U 22083X   24172.96722795 -.00001124  00000-0 -52540-4 0  9995,2 53153  53.2185  97.5879 0001294  94.5705 265.5435 15.08847098107372,6917.859,95.437,540.619,538.829,0.0
53153.0,STARLINK-4098,PAYLOAD,2024-06-21 05:34:20,15.0885099,0.0001252,53.2182,96.3973,88.4502,271.6634,9.2079e-06,-1.41e-06,0.0,0 STARLINK-4098,1 53153U 22083X   24173.23218312 -.00000141  00000-0  92079-5 0  9990,2 53153  53.2182  96.3973 0001252  88.4502 271.6634 15.08850990106780,6917.847,95.437,540.578,538.846,0.0
53153.0,STARLINK-4098,PAYLOAD,2024-06-22 03:49:45,15.08837659,0.0001319,53.2178,92.2325,97.6506,262.4636,0.00014946,2.091e-05,0.0,0 STARLINK-4098,1 53153U 22083X   24174.15955244  .00002091  00000-0  14946-3 0  9994,2 53153  53.2178  92.2325 0001319  97.6506 262.4636 15.08837659107554,6917.888,95.438,540.665,538.84,0.0
53153.0,STARLINK-4098,PAYLOAD,2024-06-22 22:54:23,15.08840152,0.0001443,53.219,88.6657,105.7272,254.3879,6.9538e-05,8.19e-06,0.0,0 STARLINK-4098,1 53153U 22083X   24174.95443395  .00000819  00000-0  69538-4 0  9995,2 53153  53.2190  88.6657 0001443 105.7272 254.3879 15.08840152107049,6917.88,95.438,540.743,538.747,0.0
53153.0,STARLINK-4098,PAYLOAD,2024-06-23 02:05:09,15.08846129,0.000129,53.2177,88.0715,94.8702,265.2437,2.8602e-05,1.67e-06,0.0,0 STARLINK-4098,1 53153U 22083X   24175.08691218  .00000167  00000-0  28602-4 0  9992,2 53153  53.2177  88.0715 0001290  94.8702 265.2437 15.08846129107062,6917.862,95.437,540.619,538.834,0.0
53153.0,STARLINK-4098,PAYLOAD,2024-06-23 17:59:00,15.08839248,0.0001387,53.2173,85.0992,83.7904,276.3247,9.4218e-05,1.212e-05,0.0,0 STARLINK-4098,1 53153U 22083X   24175.74931450  .00001212  00000-0  94218-4 0  9998,2 53153  53.2173  85.0992 0001387  83.7904 276.3247 15.08839248107796,6917.883,95.438,540.707,538.788,0.0
53153.0,STARLINK-4098,PAYLOAD,2024-06-23 22:45:10,15.08845888,0.0001444,53.2176,84.2072,91.7184,268.3974,3.2052e-05,2.22e-06,0.0,0 STARLINK-4098,1 53153U 22083X   24175.94803254  .00000222  00000-0  32052-4 0  9998,2 53153  53.2176  84.2072 0001444  91.7184 268.3974 15.08845888107191,6917.862,95.437,540.726,538.728,0.0
53153.0,STARLINK-4098,PAYLOAD,2024-06-24 03:31:18,15.08852326,0.000135,53.2176,83.3119,96.1304,263.9842,9.897e-05,1.288e-05,0.0,0 STARLINK-4098,1 53153U 22083X   24176.14674479  .00001288  00000-0  98970-4 0  9990,2 53153  53.2176  83.3119 0001350  96.1304 263.9842 15.08852326107855,6917.843,95.437,540.642,538.774,0.0
